{
  "type": "FeatureCollection",
  "features": [
    {
      "type": "Feature",
      "properties": {
        "norad_id": 31217,
        "name": "FENGYUN 1C DEB",
        "group": "fengyun-1c-debris",
        "lat": -52.164999183230655,
        "lon": 156.64820249225173,
        "alt_km": 797.3063182434744,
        "timestamp": "2025-12-05T20:43:02.336143+00:00",
        "meta_object_name": "FENGYUN 1C DEB",
        "meta_object_id": "1999-025BKX",
        "meta_epoch": "2025-12-05T06:04:23.974464",
        "meta_mean_motion": 14.17510869,
        "meta_eccentricity": 0.00992473,
        "meta_inclination": 98.6408,
        "meta_ra_of_asc_node": 347.3456,
        "meta_arg_of_pericenter": 181.5535,
        "meta_mean_anomaly": 178.5346,
        "meta_ephemeris_type": 0,
        "meta_classification_type": "U",
        "meta_norad_cat_id": 31217,
        "meta_element_set_no": 999,
        "meta_rev_at_epoch": 96242,
        "meta_bstar": 0.00092557024,
        "meta_mean_motion_dot": 1.929e-05,
        "meta_mean_motion_ddot": 0,
        "tle_line1": "1 31217U 99025BKX 25339.25305526  .00001929  00000+0  92557-3 0  9990",
        "tle_line2": "2 31217  98.6408 347.3456 0099247 181.5535 178.5346 14.17510869962421"
      },
      "geometry": {
        "type": "Point",
        "coordinates": [
          156.64820249225173,
          -52.164999183230655
        ]
      }
    },
    {
      "type": "Feature",
      "properties": {
        "norad_id": 31218,
        "name": "FENGYUN 1C DEB",
        "group": "fengyun-1c-debris",
        "lat": -37.17893576234551,
        "lon": -97.33418554881587,
        "alt_km": 668.6481586975087,
        "timestamp": "2025-12-05T20:43:02.336153+00:00",
        "meta_object_name": "FENGYUN 1C DEB",
        "meta_object_id": "1999-025BKY",
        "meta_epoch": "2025-12-04T12:44:00.040128",
        "meta_mean_motion": 14.71780481,
        "meta_eccentricity": 0.0011488,
        "meta_inclination": 98.8431,
        "meta_ra_of_asc_node": 87.9996,
        "meta_arg_of_pericenter": 63.3018,
        "meta_mean_anomaly": 296.9361,
        "meta_ephemeris_type": 0,
        "meta_classification_type": "U",
        "meta_norad_cat_id": 31218,
        "meta_element_set_no": 999,
        "meta_rev_at_epoch": 96962,
        "meta_bstar": 0.011647,
        "meta_mean_motion_dot": 0.00073542,
        "meta_mean_motion_ddot": 0,
        "tle_line1": "1 31218U 99025BKY 25338.53055602  .00073542  00000+0  11647-1 0  9997",
        "tle_line2": "2 31218  98.8431  87.9996 0011488  63.3018 296.9361 14.71780481969620"
      },
      "geometry": {
        "type": "Point",
        "coordinates": [
          -97.33418554881587,
          -37.17893576234551
        ]
      }
    },
    {
      "type": "Feature",
      "properties": {
        "norad_id": 31219,
        "name": "FENGYUN 1C DEB",
        "group": "fengyun-1c-debris",
        "lat": 77.41302192433301,
        "lon": -57.63846715050696,
        "alt_km": 862.9552314136836,
        "timestamp": "2025-12-05T20:43:02.336163+00:00",
        "meta_object_name": "FENGYUN 1C DEB",
        "meta_object_id": "1999-025BKZ",
        "meta_epoch": "2025-11-28T23:33:42.264288",
        "meta_mean_motion": 14.13677132,
        "meta_eccentricity": 0.00786886,
        "meta_inclination": 99.2839,
        "meta_ra_of_asc_node": 342.322,
        "meta_arg_of_pericenter": 215.6749,
        "meta_mean_anomaly": 143.9149,
        "meta_ephemeris_type": 0,
        "meta_classification_type": "U",
        "meta_norad_cat_id": 31219,
        "meta_element_set_no": 999,
        "meta_rev_at_epoch": 95375,
        "meta_bstar": 0.0014850879,
        "meta_mean_motion_dot": 2.841e-05,
        "meta_mean_motion_ddot": 0,
        "tle_line1": "1 31219U 99025BKZ 25332.98173917  .00002841  00000+0  14851-2 0  9996",
        "tle_line2": "2 31219  99.2839 342.3220 0078688 215.6749 143.9149 14.13677132953750"
      },
      "geometry": {
        "type": "Point",
        "coordinates": [
          -57.63846715050696,
          77.41302192433301
        ]
      }
    },
    {
      "type": "Feature",
      "properties": {
        "norad_id": 31222,
        "name": "FENGYUN 1C DEB",
        "group": "fengyun-1c-debris",
        "lat": -7.450085360047805,
        "lon": 50.26986494329463,
        "alt_km": 595.4479576455406,
        "timestamp": "2025-12-05T20:43:02.336173+00:00",
        "meta_object_name": "FENGYUN 1C DEB",
        "meta_object_id": "1999-025BLC",
        "meta_epoch": "2025-12-04T15:53:13.949664",
        "meta_mean_motion": 14.97569168,
        "meta_eccentricity": 0.0170527,
        "meta_inclination": 98.6136,
        "meta_ra_of_asc_node": 47.8098,
        "meta_arg_of_pericenter": 95.8565,
        "meta_mean_anomaly": 266.2121,
        "meta_ephemeris_type": 0,
        "meta_classification_type": "U",
        "meta_norad_cat_id": 31222,
        "meta_element_set_no": 999,
        "meta_rev_at_epoch": 99863,
        "meta_bstar": 0.0014358,
        "meta_mean_motion_dot": 0.00022616,
        "meta_mean_motion_ddot": 0,
        "tle_line1": "1 31222U 99025BLC 25338.66196701  .00022616  00000+0  14358-2 0  9991",
        "tle_line2": "2 31222  98.6136  47.8098 0170527  95.8565 266.2121 14.97569168998632"
      },
      "geometry": {
        "type": "Point",
        "coordinates": [
          50.26986494329463,
          -7.450085360047805
        ]
      }
    },
    {
      "type": "Feature",
      "properties": {
        "norad_id": 31223,
        "name": "FENGYUN 1C DEB",
        "group": "fengyun-1c-debris",
        "lat": -23.45008967058571,
        "lon": 42.5856905905002,
        "alt_km": 1122.6286658228137,
        "timestamp": "2025-12-05T20:43:02.336183+00:00",
        "meta_object_name": "FENGYUN 1C DEB",
        "meta_object_id": "1999-025BLD",
        "meta_epoch": "2025-12-05T04:03:30.279744",
        "meta_mean_motion": 13.77185401,
        "meta_eccentricity": 0.02414713,
        "meta_inclination": 99.0055,
        "meta_ra_of_asc_node": 225.8719,
        "meta_arg_of_pericenter": 60.8193,
        "meta_mean_anomaly": 301.6886,
        "meta_ephemeris_type": 0,
        "meta_classification_type": "U",
        "meta_norad_cat_id": 31223,
        "meta_element_set_no": 999,
        "meta_rev_at_epoch": 92624,
        "meta_bstar": 0.003835107,
        "meta_mean_motion_dot": 4.672e-05,
        "meta_mean_motion_ddot": 0,
        "tle_line1": "1 31223U 99025BLD 25339.16910046  .00004672  00000+0  38351-2 0  9995",
        "tle_line2": "2 31223  99.0055 225.8719 0241471  60.8193 301.6886 13.77185401926243"
      },
      "geometry": {
        "type": "Point",
        "coordinates": [
          42.5856905905002,
          -23.45008967058571
        ]
      }
    },
    {
      "type": "Feature",
      "properties": {
        "norad_id": 31224,
        "name": "FENGYUN 1C DEB",
        "group": "fengyun-1c-debris",
        "lat": -35.747563092538854,
        "lon": 145.94687093930244,
        "alt_km": 706.2768179841751,
        "timestamp": "2025-12-05T20:43:02.336193+00:00",
        "meta_object_name": "FENGYUN 1C DEB",
        "meta_object_id": "1999-025BLE",
        "meta_epoch": "2025-12-03T18:07:18.672672",
        "meta_mean_motion": 14.28870959,
        "meta_eccentricity": 0.01575493,
        "meta_inclination": 98.3692,
        "meta_ra_of_asc_node": 330.0057,
        "meta_arg_of_pericenter": 189.4604,
        "meta_mean_anomaly": 347.708,
        "meta_ephemeris_type": 0,
        "meta_classification_type": "U",
        "meta_norad_cat_id": 31224,
        "meta_element_set_no": 999,
        "meta_rev_at_epoch": 69122,
        "meta_bstar": 0.00043720692,
        "meta_mean_motion_dot": 1.217e-05,
        "meta_mean_motion_ddot": 0,
        "tle_line1": "1 31224U 99025BLE 25337.75507723  .00001217  00000+0  43721-3 0  9993",
        "tle_line2": "2 31224  98.3692 330.0057 0157549 189.4604 347.7080 14.28870959691224"
      },
      "geometry": {
        "type": "Point",
        "coordinates": [
          145.94687093930244,
          -35.747563092538854
        ]
      }
    },
    {
      "type": "Feature",
      "properties": {
        "norad_id": 31225,
        "name": "FENGYUN 1C DEB",
        "group": "fengyun-1c-debris",
        "lat": -12.942916290637775,
        "lon": -129.07923369148278,
        "alt_km": 900.8415264451196,
        "timestamp": "2025-12-05T20:43:02.336203+00:00",
        "meta_object_name": "FENGYUN 1C DEB",
        "meta_object_id": "1999-025BLF",
        "meta_epoch": "2025-12-05T04:41:23.403264",
        "meta_mean_motion": 14.17799327,
        "meta_eccentricity": 0.00882728,
        "meta_inclination": 98.9909,
        "meta_ra_of_asc_node": 52.3301,
        "meta_arg_of_pericenter": 13.2242,
        "meta_mean_anomaly": 13.1258,
        "meta_ephemeris_type": 0,
        "meta_classification_type": "U",
        "meta_norad_cat_id": 31225,
        "meta_element_set_no": 999,
        "meta_rev_at_epoch": 95715,
        "meta_bstar": 0.0024028472,
        "meta_mean_motion_dot": 5.051e-05,
        "meta_mean_motion_ddot": 0,
        "tle_line1": "1 31225U 99025BLF 25339.19540976  .00005051  00000+0  24028-2 0  9999",
        "tle_line2": "2 31225  98.9909  52.3301 0088272  13.2242  13.1258 14.17799327957151"
      },
      "geometry": {
        "type": "Point",
        "coordinates": [
          -129.07923369148278,
          -12.942916290637775
        ]
      }
    }
  ]
}